1 8333U          19305.92569444  .00000000  00000-0  00000-0 0 00000
2 8333 097.6600 169.2410 0000000 000.0000 192.0010 15.01920000000000
1 8333U          19306.39097222  .00000000  00000-0  00000-0 0 00000
2 8333 097.6590 169.6990 0000000 000.0000 184.5010 15.01920000000000
1 8333U          19306.58888889  .00000000  00000-0  00000-0 0 00000
2 8333 097.6590 169.8940 0000000 000.0000 173.2510 15.01920000000000
1 8333U          19307.05763889  .00000000  00000-0  00000-0 0 00000
2 8333 097.6580 170.3560 0000000 000.0000 184.5010 15.01920000000000
1 8333U          19307.37291667  .00000000  00000-0  00000-0 0 00000
2 8333 097.6570 170.6670 0000000 000.0000 087.0020 15.01920000000000
1 8333U          19307.63125000  .00000000  00000-0  00000-0 0 00000
2 8333 097.6570 170.9220 0000000 000.0000 042.0020 15.01920000000000
1 8333U          19308.04166667  .00000000  00000-0  00000-0 0 00000
2 8333 097.6560 171.3260 0000000 000.0000 098.2520 15.01920000000000
1 8333U          19308.37569444  .00000000  00000-0  00000-0 0 00000
2 8333 097.6550 171.6550 0000000 000.0000 102.0020 15.01920000000000
1 8333U          19308.67083333  .00000000  00000-0  00000-0 0 00000
2 8333 097.6550 171.9460 0000000 000.0000 255.7520 15.01920000000000
1 8333U          19308.95347222  .00000000  00000-0  00000-0 0 00000
2 8333 097.6540 172.2250 0000000 000.0000 342.0020 15.01920000000000
1 8333U          19309.31944444  .00000000  00000-0  00000-0 0 00000
2 8333 097.6530 172.5860 0000000 000.0000 158.2520 15.01920000000000
1 8333U          19309.65416667  .00000000  00000-0  00000-0 0 00000
2 8333 097.6530 172.9150 0000000 000.0000 165.7520 15.01920000000000
1 8333U          19310.08125000  .00000000  00000-0  00000-0 0 00000
2 8333 097.6520 173.3360 0000000 000.0000 312.0020 15.01920000000000
1 8333U          19310.25555556  .00000000  00000-0  00000-0 0 00000
2 8333 097.6520 173.5080 0000000 000.0000 173.2520 15.01920000000000
1 8333U          19310.62291667  .00000000  00000-0  00000-0 0 00000
2 8333 097.6510 173.8700 0000000 000.0000 357.0030 15.01920000000000
1 8333U          19311.05763889  .00000000  00000-0  00000-0 0 00000
2 8333 097.6500 174.2990 0000000 000.0000 184.5030 15.01920000000000
1 8333U          19311.33263889  .00000000  00000-0  00000-0 0 00000
2 8333 097.6500 174.5700 0000000 000.0000 229.5030 15.01920000000000
1 8333U          19311.63611111  .00000000  00000-0  00000-0 0 00000
2 8333 097.6490 174.8690 0000000 000.0000 068.2530 15.01920000000000
1 8333U          19311.89583333  .00000000  00000-0  00000-0 0 00000
2 8333 097.6490 175.1250 0000000 000.0000 030.7530 15.01914300000000
1 8333U          19312.29444444  .00000000  00000-0  00000-0 0 00000
2 8333 097.6480 175.5180 0000000 000.0000 023.2530 15.01914300000000
1 8333U          19312.51666667  .00000000  00000-0  00000-0 0 00000
2 8333 097.6480 175.7370 0000000 000.0000 143.2530 15.01914300000000
1 8333U          19312.83888889  .00000000  00000-0  00000-0 0 00000
2 8333 097.6470 176.0540 0000000 000.0000 083.2530 15.01914300000000
1 8333U          19313.29722222  .00000000  00000-0  00000-0 0 00000
2 8333 097.6460 176.5060 0000000 000.0000 038.2530 15.01914300000000
1 8333U          19313.61458333  .00000000  00000-0  00000-0 0 00000
2 8333 097.6460 176.8190 0000000 000.0000 312.0030 15.01914300000000
1 8333U          19313.91250000  .00000000  00000-0  00000-0 0 00000
2 8333 097.6450 177.1130 0000000 000.0000 120.7530 15.01914300000000
1 8333U          19314.18055556  .00000000  00000-0  00000-0 0 00000
2 8333 097.6440 177.3770 0000000 000.0000 128.2530 15.01914300000000
1 8333U          19314.48611111  .00000000  00000-0  00000-0 0 00000
2 8333 097.6440 177.6780 0000000 000.0000 338.2530 15.01914300000000
1 8333U          19314.94444444  .00000000  00000-0  00000-0 0 00000
2 8333 097.6430 178.1300 0000000 000.0000 293.2530 15.01914300000000
1 8333U          19315.23055556  .00000000  00000-0  00000-0 0 00000
2 8333 097.6430 178.4120 0000000 000.0000 038.2530 15.01914300000000
1 8333U          19315.53819444  .00000000  00000-0  00000-0 0 00000
2 8333 097.6420 178.7150 0000000 000.0000 259.5030 15.01914300000000
1 8333U          19315.95694444  .00000000  00000-0  00000-0 0 00000
2 8333 097.6410 179.1280 0000000 000.0000 000.7530 15.01914300000000
1 8333U          19316.29166667  .00000000  00000-0  00000-0 0 00000
2 8333 097.6410 179.4580 0000000 000.0000 008.2530 15.01914300000000
1 8333U          19316.62986111  .00000000  00000-0  00000-0 0 00000
2 8333 097.6400 179.7910 0000000 000.0000 034.5030 15.01914300000000
1 8333U          19316.86041667  .00000000  00000-0  00000-0 0 00000
2 8333 097.6390 180.0180 0000000 000.0000 199.5030 15.01914300000000
1 8333U          19317.23541667  .00000000  00000-0  00000-0 0 00000
2 8333 097.6390 180.3880 0000000 000.0000 064.5030 15.01914300000000
1 8333U          19317.54583333  .00000000  00000-0  00000-0 0 00000
2 8333 097.6380 180.6940 0000000 000.0000 300.7530 15.01914300000000
1 8333U          19317.83819444  .00000000  00000-0  00000-0 0 00000
2 8333 097.6380 180.9820 0000000 000.0000 079.5030 15.01914300000000
1 8333U          19318.29861111  .00000000  00000-0  00000-0 0 00000
2 8333 097.6370 181.4360 0000000 000.0000 045.7530 15.01914300000000
1 8333U          19318.63750000  .00000000  00000-0  00000-0 0 00000
2 8333 097.6360 181.7700 0000000 000.0000 075.7530 15.01914300000000
1 8333U          19318.88541667  .00000000  00000-0  00000-0 0 00000
2 8333 097.6360 182.0140 0000000 000.0000 334.5030 15.01914300000000
1 8333U          19318.89583333  .00000000  00000-0  00000-0 0 00000
2 8333 097.6360 182.0240 0000000 000.0000 030.7530 15.01914300000000
1 8333U          19319.31041667  .00000000  00000-0  00000-0 0 00000
2 8333 097.6350 182.4330 0000000 000.0000 109.5030 15.01914300000000
1 8333U          19319.48333333  .00000000  00000-0  00000-0 0 00000
2 8333 097.6350 182.6030 0000000 000.0000 323.2530 15.01914300000000
1 8333U          19319.88611111  .00000000  00000-0  00000-0 0 00000
2 8333 097.6340 183.0000 0000000 000.0000 338.2530 15.01914300000000
1 8333U          19320.29097222  .00000000  00000-0  00000-0 0 00000
2 8333 097.6330 183.3990 0000000 000.0000 004.5030 15.01914300000000
1 8333U          19320.62916667  .00000000  00000-0  00000-0 0 00000
2 8333 097.6320 183.7330 0000000 000.0000 030.7530 15.01914300000000
1 8333U          19320.94236111  .00000000  00000-0  00000-0 0 00000
2 8333 097.6320 184.0410 0000000 000.0000 282.0030 15.01914300000000
1 8333U          19321.30347222  .00000000  00000-0  00000-0 0 00000
2 8333 097.6310 184.3970 0000000 000.0000 072.0030 15.01914300000000
1 8333U          19321.55069444  .00000000  00000-0  00000-0 0 00000
2 8333 097.6310 184.6410 0000000 000.0000 327.0030 15.01914300000000
1 8333U          19321.87013889  .00000000  00000-0  00000-0 0 00000
2 8333 097.6300 184.9560 0000000 000.0000 252.0030 15.01914300000000
1 8333U          19322.14930556  .00000000  00000-0  00000-0 0 00000
2 8333 097.6300 185.2310 0000000 000.0000 319.5030 15.01914300000000
1 8333U          19322.60625000  .00000000  00000-0  00000-0 0 00000
2 8333 097.6290 185.6810 0000000 000.0000 267.0030 15.01914300000000
1 8333U          19322.92291667  .00000000  00000-0  00000-0 0 00000
2 8333 097.6280 185.9930 0000000 000.0000 177.0030 15.01914300000000
1 8333U          19323.22222222  .00000000  00000-0  00000-0 0 00000
2 8333 097.6280 186.2880 0000000 000.0000 353.2530 15.01914300000000
1 8333U          19323.61527778  .00000000  00000-0  00000-0 0 00000
2 8333 097.6270 186.6760 0000000 000.0000 315.7530 15.01914300000000
1 8333U          19323.93055556  .00000000  00000-0  00000-0 0 00000
2 8333 097.6260 186.9860 0000000 000.0000 218.2530 15.01914300000000
1 8333U          19324.27916667  .00000000  00000-0  00000-0 0 00000
2 8333 097.6260 187.3300 0000000 000.0000 300.7530 15.01914300000000
1 8333U          19324.62569444  .00000000  00000-0  00000-0 0 00000
2 8333 097.6250 187.6710 0000000 000.0000 012.0030 15.01914300000000
1 8333U          19324.84097222  .00000000  00000-0  00000-0 0 00000
2 8333 097.6250 187.8840 0000000 000.0000 094.5020 15.01914300000000
1 8333U          19325.25486111  .00000000  00000-0  00000-0 0 00000
2 8333 097.6240 188.2920 0000000 000.0000 169.5020 15.01914300000000
1 8333U          19325.58402778  .00000000  00000-0  00000-0 0 00000
2 8333 097.6230 188.6160 0000000 000.0000 147.0020 15.01914300000000
1 8333U          19325.82013889  .00000000  00000-0  00000-0 0 00000
2 8333 097.6230 188.8490 0000000 000.0000 342.0020 15.01914300000000
1 8333U          19325.92708333  .00000000  00000-0  00000-0 0 00000
2 8333 097.6230 188.9540 0000000 000.0000 199.5020 15.01914300000000
1 8333U          19326.20902778  .00000000  00000-0  00000-0 0 00000
2 8333 097.6220 189.2320 0000000 000.0000 282.0020 15.01914300000000
1 8333U          19326.51875000  .00000000  00000-0  00000-0 0 00000
2 8333 097.6220 189.5370 0000000 000.0000 154.5020 15.01914300000000
1 8333U          19326.96458333  .00000000  00000-0  00000-0 0 00000
2 8333 097.6210 189.9770 0000000 000.0000 042.0020 15.01914300000000
1 8333U          19327.29166667  .00000000  00000-0  00000-0 0 00000
2 8333 097.6200 190.2990 0000000 000.0000 008.2520 15.01914300000000
1 8333U          19327.59375000  .00000000  00000-0  00000-0 0 00000
2 8333 097.6200 190.5970 0000000 000.0000 199.5020 15.01914300000000
1 8333U          19327.96388889  .00000000  00000-0  00000-0 0 00000
2 8333 097.6190 190.9610 0000000 000.0000 038.2520 15.01914300000000
1 8333U          19328.18611111  .00000000  00000-0  00000-0 0 00000
2 8333 097.6190 191.1810 0000000 000.0000 158.2520 15.01914300000000
1 8333U          19328.59652778  .00000000  00000-0  00000-0 0 00000
2 8333 097.6180 191.5850 0000000 000.0000 214.5010 15.01914300000000
1 8333U          19328.95208333  .00000000  00000-0  00000-0 0 00000
2 8333 097.6170 191.9350 0000000 000.0000 334.5010 15.01914300000000
